KUIPER-00176            
1 65788U 25217AC  26014.18665654  .00001791  00000+0  26409-3 0  9996
2 65788  51.9007 284.1158 0001057 108.2258 251.8819 14.79904652 16802
KUIPER-00101            
1 65947U 25228A   26013.79351452  .00001720  00000+0  25453-3 0  9999
2 65947  51.8979 243.3393 0001134  86.5072 273.6020 14.79932296 15105
KUIPER-00113            
1 65948U 25228B   26014.03523772 -.00012665  00000+0 -16328-2 0  9996
2 65948  51.8981 237.2842 0001144 138.3440 221.7610 14.79999822 15204
KUIPER-00117            
1 65949U 25228C   26013.99877056  .00001895  00000+0  27741-3 0  9991
2 65949  51.8978 239.9512 0000948 111.9396 248.1667 14.79940465 15161
KUIPER-00121            
1 65950U 25228D   26014.25002315 -.00096658  00000+0 -13710-1 0  9993
2 65950  51.8982 233.7031 0005723 350.1581 124.9237 14.77129503  4594
KUIPER-00122            
1 65951U 25228E   26014.02727068  .00005645  00000+0  76908-3 0  9992
2 65951  51.8974 244.7969 0001541 115.6180 244.4942 14.79918829 15100
KUIPER-00123            
1 65952U 25228F   26013.79089244  .00001659  00000+0  24680-3 0  9994
2 65952  51.8978 245.8652 0000863 113.3021 246.8032 14.79901928 15064
KUIPER-00124            
1 65953U 25228G   26014.00149343  .00001547  00000+0  23180-3 0  9997
2 65953  51.8989 237.4194 0000872 103.3976 256.7084 14.79957621 15207
