<?xml version="1.0" encoding="UTF-8"?>
<ndm xmlns:xsi="http://www.w3.org/2001/XMLSchema-instance" xsi:noNamespaceSchemaLocation="https://sanaregistry.org/r/ndmxml_unqualified/ndmxml-2.0.0-master-2.0.xsd">
<omm id="CCSDS_OMM_VERS" version="2.0">
<header><CREATION_DATE/><ORIGINATOR/></header><body><segment><metadata><OBJECT_NAME>KUIPER-00176</OBJECT_NAME><OBJECT_ID>2025-217AC</OBJECT_ID><CENTER_NAME>EARTH</CENTER_NAME><REF_FRAME>TEME</REF_FRAME><TIME_SYSTEM>UTC</TIME_SYSTEM><MEAN_ELEMENT_THEORY>SGP4</MEAN_ELEMENT_THEORY></metadata><data><meanElements><EPOCH>2026-01-14T04:28:47.125056</EPOCH><MEAN_MOTION>14.79904652</MEAN_MOTION><ECCENTRICITY>.00010576</ECCENTRICITY><INCLINATION>51.9007</INCLINATION><RA_OF_ASC_NODE>284.1158</RA_OF_ASC_NODE><ARG_OF_PERICENTER>108.2258</ARG_OF_PERICENTER><MEAN_ANOMALY>251.8819</MEAN_ANOMALY></meanElements><tleParameters><EPHEMERIS_TYPE>0</EPHEMERIS_TYPE><CLASSIFICATION_TYPE>U</CLASSIFICATION_TYPE><NORAD_CAT_ID>65788</NORAD_CAT_ID><ELEMENT_SET_NO>999</ELEMENT_SET_NO><REV_AT_EPOCH>1680</REV_AT_EPOCH><BSTAR>.26409027E-3</BSTAR><MEAN_MOTION_DOT>.1791E-4</MEAN_MOTION_DOT><MEAN_MOTION_DDOT>0</MEAN_MOTION_DDOT></tleParameters></data></segment></body></omm>
<omm id="CCSDS_OMM_VERS" version="2.0">
<header><CREATION_DATE/><ORIGINATOR/></header><body><segment><metadata><OBJECT_NAME>KUIPER-00101</OBJECT_NAME><OBJECT_ID>2025-228A</OBJECT_ID><CENTER_NAME>EARTH</CENTER_NAME><REF_FRAME>TEME</REF_FRAME><TIME_SYSTEM>UTC</TIME_SYSTEM><MEAN_ELEMENT_THEORY>SGP4</MEAN_ELEMENT_THEORY></metadata><data><meanElements><EPOCH>2026-01-13T19:02:39.654528</EPOCH><MEAN_MOTION>14.79932296</MEAN_MOTION><ECCENTRICITY>.0001134</ECCENTRICITY><INCLINATION>51.8979</INCLINATION><RA_OF_ASC_NODE>243.3393</RA_OF_ASC_NODE><ARG_OF_PERICENTER>86.5072</ARG_OF_PERICENTER><MEAN_ANOMALY>273.6020</MEAN_ANOMALY></meanElements><tleParameters><EPHEMERIS_TYPE>0</EPHEMERIS_TYPE><CLASSIFICATION_TYPE>U</CLASSIFICATION_TYPE><NORAD_CAT_ID>65947</NORAD_CAT_ID><ELEMENT_SET_NO>999</ELEMENT_SET_NO><REV_AT_EPOCH>1510</REV_AT_EPOCH><BSTAR>.25452909E-3</BSTAR><MEAN_MOTION_DOT>.172E-4</MEAN_MOTION_DOT><MEAN_MOTION_DDOT>0</MEAN_MOTION_DDOT></tleParameters></data></segment></body></omm>
<omm id="CCSDS_OMM_VERS" version="2.0">
<header><CREATION_DATE/><ORIGINATOR/></header><body><segment><metadata><OBJECT_NAME>KUIPER-00113</OBJECT_NAME><OBJECT_ID>2025-228B</OBJECT_ID><CENTER_NAME>EARTH</CENTER_NAME><REF_FRAME>TEME</REF_FRAME><TIME_SYSTEM>UTC</TIME_SYSTEM><MEAN_ELEMENT_THEORY>SGP4</MEAN_ELEMENT_THEORY></metadata><data><meanElements><EPOCH>2026-01-14T00:50:44.539008</EPOCH><MEAN_MOTION>14.79999822</MEAN_MOTION><ECCENTRICITY>.00011445</ECCENTRICITY><INCLINATION>51.8981</INCLINATION><RA_OF_ASC_NODE>237.2842</RA_OF_ASC_NODE><ARG_OF_PERICENTER>138.3440</ARG_OF_PERICENTER><MEAN_ANOMALY>221.7610</MEAN_ANOMALY></meanElements><tleParameters><EPHEMERIS_TYPE>0</EPHEMERIS_TYPE><CLASSIFICATION_TYPE>U</CLASSIFICATION_TYPE><NORAD_CAT_ID>65948</NORAD_CAT_ID><ELEMENT_SET_NO>999</ELEMENT_SET_NO><REV_AT_EPOCH>1520</REV_AT_EPOCH><BSTAR>-.16327852E-2</BSTAR><MEAN_MOTION_DOT>-.12665E-3</MEAN_MOTION_DOT><MEAN_MOTION_DDOT>0</MEAN_MOTION_DDOT></tleParameters></data></segment></body></omm>
<omm id="CCSDS_OMM_VERS" version="2.0">
<header><CREATION_DATE/><ORIGINATOR/></header><body><segment><metadata><OBJECT_NAME>KUIPER-00117</OBJECT_NAME><OBJECT_ID>2025-228C</OBJECT_ID><CENTER_NAME>EARTH</CENTER_NAME><REF_FRAME>TEME</REF_FRAME><TIME_SYSTEM>UTC</TIME_SYSTEM><MEAN_ELEMENT_THEORY>SGP4</MEAN_ELEMENT_THEORY></metadata><data><meanElements><EPOCH>2026-01-13T23:58:13.776384</EPOCH><MEAN_MOTION>14.79940465</MEAN_MOTION><ECCENTRICITY>.00009487</ECCENTRICITY><INCLINATION>51.8978</INCLINATION><RA_OF_ASC_NODE>239.9512</RA_OF_ASC_NODE><ARG_OF_PERICENTER>111.9396</ARG_OF_PERICENTER><MEAN_ANOMALY>248.1667</MEAN_ANOMALY></meanElements><tleParameters><EPHEMERIS_TYPE>0</EPHEMERIS_TYPE><CLASSIFICATION_TYPE>U</CLASSIFICATION_TYPE><NORAD_CAT_ID>65949</NORAD_CAT_ID><ELEMENT_SET_NO>999</ELEMENT_SET_NO><REV_AT_EPOCH>1516</REV_AT_EPOCH><BSTAR>.27740653E-3</BSTAR><MEAN_MOTION_DOT>.1895E-4</MEAN_MOTION_DOT><MEAN_MOTION_DDOT>0</MEAN_MOTION_DDOT></tleParameters></data></segment></body></omm>
<omm id="CCSDS_OMM_VERS" version="2.0">
<header><CREATION_DATE/><ORIGINATOR/></header><body><segment><metadata><OBJECT_NAME>KUIPER-00121</OBJECT_NAME><OBJECT_ID>2025-228D</OBJECT_ID><CENTER_NAME>EARTH</CENTER_NAME><REF_FRAME>TEME</REF_FRAME><TIME_SYSTEM>UTC</TIME_SYSTEM><MEAN_ELEMENT_THEORY>SGP4</MEAN_ELEMENT_THEORY></metadata><data><meanElements><EPOCH>2026-01-14T06:00:02.000160</EPOCH><MEAN_MOTION>14.77129503</MEAN_MOTION><ECCENTRICITY>.00057231</ECCENTRICITY><INCLINATION>51.8982</INCLINATION><RA_OF_ASC_NODE>233.7031</RA_OF_ASC_NODE><ARG_OF_PERICENTER>350.1581</ARG_OF_PERICENTER><MEAN_ANOMALY>124.9237</MEAN_ANOMALY></meanElements><tleParameters><EPHEMERIS_TYPE>0</EPHEMERIS_TYPE><CLASSIFICATION_TYPE>U</CLASSIFICATION_TYPE><NORAD_CAT_ID>65950</NORAD_CAT_ID><ELEMENT_SET_NO>999</ELEMENT_SET_NO><REV_AT_EPOCH>459</REV_AT_EPOCH><BSTAR>-.13709625E-1</BSTAR><MEAN_MOTION_DOT>-.96658E-3</MEAN_MOTION_DOT><MEAN_MOTION_DDOT>0</MEAN_MOTION_DDOT></tleParameters></data></segment></body></omm>
<omm id="CCSDS_OMM_VERS" version="2.0">
<header><CREATION_DATE/><ORIGINATOR/></header><body><segment><metadata><OBJECT_NAME>KUIPER-00122</OBJECT_NAME><OBJECT_ID>2025-228E</OBJECT_ID><CENTER_NAME>EARTH</CENTER_NAME><REF_FRAME>TEME</REF_FRAME><TIME_SYSTEM>UTC</TIME_SYSTEM><MEAN_ELEMENT_THEORY>SGP4</MEAN_ELEMENT_THEORY></metadata><data><meanElements><EPOCH>2026-01-14T00:39:16.186752</EPOCH><MEAN_MOTION>14.79918829</MEAN_MOTION><ECCENTRICITY>.00015413</ECCENTRICITY><INCLINATION>51.8974</INCLINATION><RA_OF_ASC_NODE>244.7969</RA_OF_ASC_NODE><ARG_OF_PERICENTER>115.6180</ARG_OF_PERICENTER><MEAN_ANOMALY>244.4942</MEAN_ANOMALY></meanElements><tleParameters><EPHEMERIS_TYPE>0</EPHEMERIS_TYPE><CLASSIFICATION_TYPE>U</CLASSIFICATION_TYPE><NORAD_CAT_ID>65951</NORAD_CAT_ID><ELEMENT_SET_NO>999</ELEMENT_SET_NO><REV_AT_EPOCH>1510</REV_AT_EPOCH><BSTAR>.76908037E-3</BSTAR><MEAN_MOTION_DOT>.5645E-4</MEAN_MOTION_DOT><MEAN_MOTION_DDOT>0</MEAN_MOTION_DDOT></tleParameters></data></segment></body></omm>
<omm id="CCSDS_OMM_VERS" version="2.0">
<header><CREATION_DATE/><ORIGINATOR/></header><body><segment><metadata><OBJECT_NAME>KUIPER-00123</OBJECT_NAME><OBJECT_ID>2025-228F</OBJECT_ID><CENTER_NAME>EARTH</CENTER_NAME><REF_FRAME>TEME</REF_FRAME><TIME_SYSTEM>UTC</TIME_SYSTEM><MEAN_ELEMENT_THEORY>SGP4</MEAN_ELEMENT_THEORY></metadata><data><meanElements><EPOCH>2026-01-13T18:58:53.106816</EPOCH><MEAN_MOTION>14.79901928</MEAN_MOTION><ECCENTRICITY>.00008637</ECCENTRICITY><INCLINATION>51.8978</INCLINATION><RA_OF_ASC_NODE>245.8652</RA_OF_ASC_NODE><ARG_OF_PERICENTER>113.3021</ARG_OF_PERICENTER><MEAN_ANOMALY>246.8032</MEAN_ANOMALY></meanElements><tleParameters><EPHEMERIS_TYPE>0</EPHEMERIS_TYPE><CLASSIFICATION_TYPE>U</CLASSIFICATION_TYPE><NORAD_CAT_ID>65952</NORAD_CAT_ID><ELEMENT_SET_NO>999</ELEMENT_SET_NO><REV_AT_EPOCH>1506</REV_AT_EPOCH><BSTAR>.24680291E-3</BSTAR><MEAN_MOTION_DOT>.1659E-4</MEAN_MOTION_DOT><MEAN_MOTION_DDOT>0</MEAN_MOTION_DDOT></tleParameters></data></segment></body></omm>
<omm id="CCSDS_OMM_VERS" version="2.0">
<header><CREATION_DATE/><ORIGINATOR/></header><body><segment><metadata><OBJECT_NAME>KUIPER-00124</OBJECT_NAME><OBJECT_ID>2025-228G</OBJECT_ID><CENTER_NAME>EARTH</CENTER_NAME><REF_FRAME>TEME</REF_FRAME><TIME_SYSTEM>UTC</TIME_SYSTEM><MEAN_ELEMENT_THEORY>SGP4</MEAN_ELEMENT_THEORY></metadata><data><meanElements><EPOCH>2026-01-14T00:02:09.032352</EPOCH><MEAN_MOTION>14.79957621</MEAN_MOTION><ECCENTRICITY>.0000872</ECCENTRICITY><INCLINATION>51.8989</INCLINATION><RA_OF_ASC_NODE>237.4194</RA_OF_ASC_NODE><ARG_OF_PERICENTER>103.3976</ARG_OF_PERICENTER><MEAN_ANOMALY>256.7084</MEAN_ANOMALY></meanElements><tleParameters><EPHEMERIS_TYPE>0</EPHEMERIS_TYPE><CLASSIFICATION_TYPE>U</CLASSIFICATION_TYPE><NORAD_CAT_ID>65953</NORAD_CAT_ID><ELEMENT_SET_NO>999</ELEMENT_SET_NO><REV_AT_EPOCH>1520</REV_AT_EPOCH><BSTAR>.23179742E-3</BSTAR><MEAN_MOTION_DOT>.1547E-4</MEAN_MOTION_DOT><MEAN_MOTION_DDOT>0</MEAN_MOTION_DDOT></tleParameters></data></segment></body></omm>

</ndm>
